#dP2018  5 25  0  0  0.00000000      96 __u+U IGS08 FIT  IAC
## 2002 432000.00000000   900.00000000 58263 0.0000000000000
+   86   C01C02C03C04C05C06C07C08C09C10C11C12C13C14E01E02E03
+        E04E05E07E08E09E11E12E14E18E19E24E26E30G01G02G03G05
+        G06G07G08G09G10G11G12G13G14G15G16G17G18G19G20G21G22
+        G23G24G25G26G27G28G29G30G31G32J02J03R01R02R03R04R05
+        R07R08R09R10R11R13R14R15R16R17R18R19R20R21R22R23R24
+        R26  0  0  0  0  0  0  0  0  0  0  0  0  0  0  0  0
++         0 12 12 13 12  8  8  8  8  8  7  8  8  8  7  7  7
++         7  7  7  7  7  7  7  7  8  7  7  7  7  3  3  3  3
++         3  3  3  3  3  3  3  3  3  3  3  3  3  3  3  3  3
++         3  3  3  3  3  3  3  3  3  3 11 11  7  5  5  5  6
++         5  5  5  5  5  5  5  5  5  5  5  5  5  5  5  5  7
++         8  0  0  0  0  0  0  0  0  0  0  0  0  0  0  0  0
%c M  cc GPS ccc cccc cccc cccc cccc ccccc ccccc ccccc ccccc
%c cc cc ccc ccc cccc cccc cccc cccc ccccc ccccc ccccc ccccc
%f  1.2500000  1.025000000  0.00000000000  0.000000000000000
%f  0.0000000  0.000000000  0.00000000000  0.000000000000000
%i    0    0    0    0      0      0      0      0         0
%i    0    0    0    0      0      0      0      0         0
/* INFORMATION & ANALYSIS CENTER (IAC)            FINAL DATA
/* S/V CLOCKS ARE ALIGNED TO GPS & GLONASS TIME RESPECTIVELY
/* USING THE BROADCAST EPHEMERIS                            
/* PCV:IGS14_2000 OL/AL:FES2004  NONE     YN ORB:CoN CLK:CoN
*  2018 05 25  3 15  0.00000000
PC01 -32225.702350  27165.351760   1038.999522 999999.999999
PC02   4361.584816  41918.149824  -1200.921072    411.760959
PC03 -14843.991204  39424.571266    441.476498   -283.142898
PC04 -39628.440074  14421.488129    414.910217   -247.172602
PC05  21915.324898  35989.535097   -959.082878    406.036725
PC06  -9063.167760  34718.582854 -21605.865075     29.892158
PC07 -15897.758645  21414.749636  32686.176715    136.248487
PC08 -25517.696925  31920.804537 -10778.793365    356.272765
PC09    788.031395  41232.881091  -7706.782620    -99.017796
PC10   2256.739919  26551.110838  32840.041788   -257.552878
PC11 -11858.379135 -11069.499181  22749.590566   -521.720140
PC12   1257.367935 -25269.514931  11730.154891    454.170227
PC13 -13680.894296  33129.212124 -22371.995263   -346.285828
PC14 -20107.783475 -18693.938026  -5085.250785    357.284428
PE01 -29188.226738  -4489.523260   1954.492881   -352.560187
PE02  29193.302641   4462.156818  -1995.632596     14.429843
PE03  18722.173151   6838.672986  21896.725600    -35.888989
PE04 -12059.825212  14738.241948 -22647.947199    -41.163496
PE05  14426.275217  24480.304431   8300.066290    258.915533
PE07  -1683.303315 -27759.270628  10144.272640     27.149950
PE08  11815.248751 -14787.612476  22766.995425   6577.911945
PE09   2007.630866  27720.428895 -10187.023569   6782.469725
PE11  -8380.792315  24471.438434 -14370.252793    313.948092
PE12 -21275.469389  20077.401864   4435.270960   4231.746621
PE14 -14955.001347   7031.984843  16561.488225   6577.654492
PE18  21115.387711  -7959.007026 -23486.494586   6183.363562
PE19 -18709.054767  -8842.038532 -21156.690580     22.571755
PE24   -687.639061  16351.232731  24648.393429   6688.952676
PE26  -8820.259115 -14730.917648  24114.713053   5899.458377
PE30  21140.304081  -8401.678522 -18950.296619   5813.303491
PG01  -2592.724236  16618.351323 -20626.737971    -50.528454
PG02  21020.864705 -15305.521222   5287.156607    105.589777
PG03   7292.865778  19466.144892 -16587.586711     76.778687
PG05  13255.468010  -9241.916286  21010.007946     -7.334793
PG06  24706.503036  -5094.055242  -8322.006707    401.139297
PG07  14196.587457   9606.337812  20616.597377    186.368188
PG08  -5261.948673  25561.349087   4517.260836   -102.433735
PG09   9090.440021  19855.707636  15079.365416    514.219214
PG10 -23440.244832  -9374.152848  -8462.065717    186.194374
PG11  -3862.911118  22088.871865 -14906.367888   -735.591104
PG12  -3150.346638 -18674.192480 -18893.259730    331.648500
PG13  12400.516371 -20566.856245  11235.856294    -94.166302
PG14 -15411.515412   7906.600536 -19786.801164    -97.073704
PG15   2501.219187 -26047.805036   2889.506572   -353.728158
PG16 -13977.585359   6753.704904  21457.913874     23.722019
PG17  14285.473718   2841.139938 -21826.243903    -94.830715
PG18 -10999.424618  18417.654002 -15999.265707     13.261315
PG19  15532.801288  -5909.201791 -21054.069188   -433.759073
PG20 -19739.628814 -16594.963701   6438.310951    508.955871
PG21 -17212.288965  -7176.428676  19710.315805   -390.616819
PG22  -1356.161146  17038.211784 -20088.889099   -403.189844
PG23   1221.664097  25942.907390   4614.320220   -216.703600
PG24   5884.274749 -18097.523100 -18529.375294    -50.182715
PG25 -16142.576065 -19255.596600  -9148.457513   -590.363791
PG26 -21042.071086   -491.625319  16267.575913   -138.055124
PG27 -12042.029160  17804.747166  15348.616915    368.227787
PG28  21816.021548  13799.943987  -5516.171787    718.072572
PG29  -5591.276604 -22160.501466  13523.036247    444.236849
PG30  21717.874009   3153.160669  15083.333735     70.344453
PG31 -25330.025837   5735.479480  -6496.963716    119.306021
PG32 -15018.567908  -3166.869300 -21642.179182   -504.752009
PJ02 -30443.769588  24563.429535  20419.869940    -21.827647
PJ03 -27464.954127  26187.122991  23408.745933    -14.588212
PR01 -11476.582907   2008.162451 -22681.454009     26.699447
PR02   1042.014346  18846.472524 -17088.451829    311.425776
PR03  11721.209401  22598.951503  -1177.768504    133.115719
PR04  15544.636334  12753.569503  15709.920099    262.204116
PR05  10524.649222  -3927.411219  22900.662746    -13.728594
PR07 -11855.787219 -22590.720711    877.703820    -38.397531
PR08 -15531.045054 -13387.296829 -15117.390910     23.031726
PR09   7904.519124 -10327.529744 -21946.084298     26.513666
PR10 -11101.729443  -9928.169232 -20708.269205     24.973064
PR11 -24228.512743  -4026.901431  -6789.350165    -29.625729
PR13  -7502.320591  10231.133007  22105.018585    -10.749830
PR14  11038.192292  10125.695947  20658.204786     27.551564
PR15  22447.473980   5653.623964  10607.978786    -10.700964
PR16  23008.862982  -4446.702174  -9966.972611     93.326374
PR17   -531.646810  17307.019319 -18735.653307    134.980003
PR18  10650.072558   2730.692305 -23009.777213    196.800117
PR19  16307.406571 -13225.968172 -14490.165625    -53.224181
PR20  12230.581842 -22092.793327   3811.814555   -339.172499
PR21    304.511570 -17030.899253  18979.296862     14.982205
PR22 -11546.138584   -934.229776  22711.163873    -45.656659
PR23 -16095.293889  16280.895741  11231.499733    155.643907
PR24 -11329.173972  22344.710665  -4767.448625   -166.708329
PR26  12109.804932 -22227.904095   3084.026942     21.767303
EOF
